[{"OBJECT_NAME":"METEOR-M2 4","OBJECT_ID":"2024-039A","EPOCH":"2026-04-05T05:43:34.258944","MEAN_MOTION":14.22421535,"ECCENTRICITY":0.00076305,"INCLINATION":98.6949,"RA_OF_ASC_NODE":55.4804,"ARG_OF_PERICENTER":29.0731,"MEAN_ANOMALY":331.0871,"EPHEMERIS_TYPE":0,"CLASSIFICATION_TYPE":"U","NORAD_CAT_ID":59051,"ELEMENT_SET_NO":999,"REV_AT_EPOCH":10889,"BSTAR":4.1460982e-5,"MEAN_MOTION_DOT":4.9e-7,"MEAN_MOTION_DDOT":0},{"OBJECT_NAME":"GOES 19","OBJECT_ID":"2024-119A","EPOCH":"2026-04-05T04:03:38.630304","MEAN_MOTION":1.00271541,"ECCENTRICITY":0.00010094,"INCLINATION":0.0443,"RA_OF_ASC_NODE":40.5976,"ARG_OF_PERICENTER":22.0775,"MEAN_ANOMALY":116.5123,"EPHEMERIS_TYPE":0,"CLASSIFICATION_TYPE":"U","NORAD_CAT_ID":60133,"ELEMENT_SET_NO":999,"REV_AT_EPOCH":623,"BSTAR":0,"MEAN_MOTION_DOT":-2.47e-6,"MEAN_MOTION_DDOT":0},{"OBJECT_NAME":"FENGYUN 3H","OBJECT_ID":"2025-219A","EPOCH":"2026-04-05T04:18:06.288480","MEAN_MOTION":14.19940122,"ECCENTRICITY":7.14e-5,"INCLINATION":98.672,"RA_OF_ASC_NODE":37.3883,"ARG_OF_PERICENTER":69.8403,"MEAN_ANOMALY":290.285,"EPHEMERIS_TYPE":0,"CLASSIFICATION_TYPE":"U","NORAD_CAT_ID":65815,"ELEMENT_SET_NO":999,"REV_AT_EPOCH":2702,"BSTAR":9.5111296e-5,"MEAN_MOTION_DOT":1.59e-6,"MEAN_MOTION_DDOT":0}]
