METEOR-M2 4             
1 59051U 24039A   26095.23859096  .00000049  00000+0  41461-4 0  9994
2 59051  98.6949  55.4804 0007630  29.0731 331.0871 14.22421535108899
GOES 19                 
1 60133U 24119A   26095.16919711 -.00000247  00000+0  00000+0 0  9999
2 60133   0.0443  40.5976 0001009  22.0775 116.5123  1.00271541  6231
FENGYUN 3H              
1 65815U 25219A   26095.17923945  .00000159  00000+0  95111-4 0  9991
2 65815  98.6720  37.3883 0000714  69.8403 290.2850 14.19940122 27023
